{
    "links": {
        "self": "http://www.neowsapp.com/rest/v1/neo/3879140?api_key=iIulBulltgU6a56xZRHN4H3l9WmuAYTsLGpBGhQ2"
    },
    "id": "3879140",
    "neo_reference_id": "3879140",
    "name": "(2019 TO6)",
    "designation": "2019 TO6",
    "nasa_jpl_url": "http://ssd.jpl.nasa.gov/sbdb.cgi?sstr=3879140",
    "absolute_magnitude_h": 28.7,
    "estimated_diameter": {
        "kilometers": {
            "estimated_diameter_min": 0.0048367649,
            "estimated_diameter_max": 0.0108153351
        },
        "meters": {
            "estimated_diameter_min": 4.8367648822,
            "estimated_diameter_max": 10.8153350678
        },
        "miles": {
            "estimated_diameter_min": 0.0030054254,
            "estimated_diameter_max": 0.0067203356
        },
        "feet": {
            "estimated_diameter_min": 15.8686516961,
            "estimated_diameter_max": 35.4833839037
        }
    },
    "is_potentially_hazardous_asteroid": false,
    "close_approach_data": [
        {
            "close_approach_date": "2017-07-21",
            "close_approach_date_full": "2017-Jul-21 22:23",
            "epoch_date_close_approach": 1500675780000,
            "relative_velocity": {
                "kilometers_per_second": "17.0856463688",
                "kilometers_per_hour": "61508.3269277304",
                "miles_per_hour": "38218.8823624"
            },
            "miss_distance": {
                "astronomical": "0.3735138222",
                "lunar": "145.2968768358",
                "kilometers": "55876872.216678714",
                "miles": "34720278.3947416932"
            },
            "orbiting_body": "Earth"
        },
        {
            "close_approach_date": "2019-10-04",
            "close_approach_date_full": "2019-Oct-04 22:53",
            "epoch_date_close_approach": 1570229580000,
            "relative_velocity": {
                "kilometers_per_second": "5.7864307231",
                "kilometers_per_hour": "20831.1506031646",
                "miles_per_hour": "12943.6668845053"
            },
            "miss_distance": {
                "astronomical": "0.0104504324",
                "lunar": "4.0652182036",
                "kilometers": "1563362.427618988",
                "miles": "971428.3667905144"
            },
            "orbiting_body": "Earth"
        },
        {
            "close_approach_date": "2068-04-06",
            "close_approach_date_full": "2068-Apr-06 03:10",
            "epoch_date_close_approach": 3100907400000,
            "relative_velocity": {
                "kilometers_per_second": "7.4817175053",
                "kilometers_per_hour": "26934.183019232",
                "miles_per_hour": "16735.8538877"
            },
            "miss_distance": {
                "astronomical": "0.0836563295",
                "lunar": "32.5423121755",
                "kilometers": "12514808.705218165",
                "miles": "7776341.535674077"
            },
            "orbiting_body": "Mars"
        }
    ],
    "orbital_data": {
        "orbit_id": "1",
        "orbit_determination_date": "2019-10-10 13:42:04",
        "first_observation_date": "2019-10-08",
        "last_observation_date": "2019-10-10",
        "data_arc_in_days": 2,
        "observations_used": 14,
        "orbit_uncertainty": "8",
        "minimum_orbit_intersection": ".00731055",
        "jupiter_tisserand_invariant": "4.208",
        "epoch_osculation": "2458765.5",
        "eccentricity": ".3883768393395579",
        "semi_major_axis": "1.639288111864734",
        "inclination": "1.347956609899127",
        "ascending_node_longitude": "202.4062591424487",
        "orbital_period": "766.6221460850377",
        "perihelion_distance": "1.002626576211797",
        "perihelion_argument": "156.493608800235",
        "aphelion_distance": "2.275949647517671",
        "perihelion_time": "2458751.011398718071",
        "mean_anomaly": "6.803738305931832",
        "mean_motion": ".4695924867790956",
        "equinox": "J2000",
        "orbit_class": {
            "orbit_class_type": "APO",
            "orbit_class_description": "Near-Earth asteroid orbits which cross the Earth’s orbit similar to that of 1862 Apollo",
            "orbit_class_range": "a (semi-major axis) > 1.0 AU; q (perihelion) < 1.017 AU"
        }
    },
    "is_sentry_object": false
}